1 08820U 76039A   03028.12013517 -.00000018  00000-0  10000-3 0  8911
2 08820 109.8328 133.6399 0044364 331.3232  28.4944  6.38664635368110
